{
    "links": {
        "self": "http://www.neowsapp.com/rest/v1/neo/3451791?api_key=iIulBulltgU6a56xZRHN4H3l9WmuAYTsLGpBGhQ2"
    },
    "id": "3451791",
    "neo_reference_id": "3451791",
    "name": "(2009 FG)",
    "designation": "2009 FG",
    "nasa_jpl_url": "http://ssd.jpl.nasa.gov/sbdb.cgi?sstr=3451791",
    "absolute_magnitude_h": 25.5,
    "estimated_diameter": {
        "kilometers": {
            "estimated_diameter_min": 0.0211132445,
            "estimated_diameter_max": 0.0472106499
        },
        "meters": {
            "estimated_diameter_min": 21.113244479,
            "estimated_diameter_max": 47.2106498806
        },
        "miles": {
            "estimated_diameter_min": 0.0131191578,
            "estimated_diameter_max": 0.0293353287
        },
        "feet": {
            "estimated_diameter_min": 69.2691770164,
            "estimated_diameter_max": 154.8905885541
        }
    },
    "is_potentially_hazardous_asteroid": false,
    "close_approach_data": [
        {
            "close_approach_date": "1915-07-11",
            "close_approach_date_full": "1915-Jul-11 11:49",
            "epoch_date_close_approach": -1719144660000,
            "relative_velocity": {
                "kilometers_per_second": "13.6582403977",
                "kilometers_per_hour": "49169.6654317027",
                "miles_per_hour": "30552.1179456044"
            },
            "miss_distance": {
                "astronomical": "0.0866387899",
                "lunar": "33.7024892711",
                "kilometers": "12960978.428417513",
                "miles": "8053578.5460191594"
            },
            "orbiting_body": "Mars"
        },
        {
            "close_approach_date": "2009-03-06",
            "close_approach_date_full": "2009-Mar-06 00:45",
            "epoch_date_close_approach": 1236300300000,
            "relative_velocity": {
                "kilometers_per_second": "10.1368684911",
                "kilometers_per_hour": "36492.726567812",
                "miles_per_hour": "22675.1611276497"
            },
            "miss_distance": {
                "astronomical": "0.0249699978",
                "lunar": "9.7133291442",
                "kilometers": "3735458.484784686",
                "miles": "2321106.2713172268"
            },
            "orbiting_body": "Earth"
        }
    ],
    "orbital_data": {
        "orbit_id": "14",
        "orbit_determination_date": "2017-04-06 09:01:02",
        "first_observation_date": "2009-03-16",
        "last_observation_date": "2009-04-01",
        "data_arc_in_days": 16,
        "observations_used": 63,
        "orbit_uncertainty": "8",
        "minimum_orbit_intersection": ".000426413",
        "jupiter_tisserand_invariant": "3.689",
        "epoch_osculation": "2454910.5",
        "eccentricity": ".5296428747753265",
        "semi_major_axis": "1.96658338747785",
        "inclination": ".0343765479301805",
        "ascending_node_longitude": "42.60497311166225",
        "orbital_period": "1007.31888512515",
        "perihelion_distance": ".9249965086486818",
        "perihelion_argument": "82.03606680303794",
        "aphelion_distance": "3.008170266307018",
        "perihelion_time": "2454865.971159946248",
        "mean_anomaly": "15.91391033769718",
        "mean_motion": ".3573843450331754",
        "equinox": "J2000",
        "orbit_class": {
            "orbit_class_type": "APO",
            "orbit_class_description": "Near-Earth asteroid orbits which cross the Earth’s orbit similar to that of 1862 Apollo",
            "orbit_class_range": "a (semi-major axis) > 1.0 AU; q (perihelion) < 1.017 AU"
        }
    },
    "is_sentry_object": false
}